COSMOS 2576             
1 59773U 24092A   26068.82603826  .00015211  00000+0  56283-3 0  9991
2 59773  97.4253 186.0053 0005946 159.7731 200.3745 15.27760963101271
STARLINK-33651          
1 63588U 25076V   26068.05796201  .00034605  00000+0  12600-2 0  9990
2 63588  42.9966 325.2776 0001367 264.0688  96.0008 15.27609489 51731
